[{"OBJECT_NAME":"YAOGAN-32 B","OBJECT_ID":"2018-077B","EPOCH":"2026-03-09T23:02:46.062240","MEAN_MOTION":14.63035466,"ECCENTRICITY":0.00062215,"INCLINATION":98.1598,"RA_OF_ASC_NODE":98.6057,"ARG_OF_PERICENTER":158.2393,"MEAN_ANOMALY":201.9074,"EPHEMERIS_TYPE":0,"CLASSIFICATION_TYPE":"U","NORAD_CAT_ID":43643,"ELEMENT_SET_NO":999,"REV_AT_EPOCH":39532,"BSTAR":0.00019194055,"MEAN_MOTION_DOT":9.37e-6,"MEAN_MOTION_DDOT":0},{"OBJECT_NAME":"H-2A DEB","OBJECT_ID":"2018-084DF","EPOCH":"2026-03-09T02:08:52.924416","MEAN_MOTION":14.65836729,"ECCENTRICITY":0.00287207,"INCLINATION":97.9617,"RA_OF_ASC_NODE":301.4682,"ARG_OF_PERICENTER":319.5663,"MEAN_ANOMALY":40.3406,"EPHEMERIS_TYPE":0,"CLASSIFICATION_TYPE":"U","NORAD_CAT_ID":48551,"ELEMENT_SET_NO":999,"REV_AT_EPOCH":26739,"BSTAR":0.00035108162,"MEAN_MOTION_DOT":1.88e-5,"MEAN_MOTION_DDOT":0}]
